[{"OBJECT_NAME":"AETHER-11","OBJECT_ID":"2026-004V","EPOCH":"2026-03-09T21:44:33.405216","MEAN_MOTION":14.88107739,"ECCENTRICITY":0.00061342,"INCLINATION":97.803,"RA_OF_ASC_NODE":69.143,"ARG_OF_PERICENTER":88.5801,"MEAN_ANOMALY":271.6118,"EPHEMERIS_TYPE":0,"CLASSIFICATION_TYPE":"U","NORAD_CAT_ID":67382,"ELEMENT_SET_NO":999,"REV_AT_EPOCH":852,"BSTAR":0.00016474653,"MEAN_MOTION_DOT":1.462e-5,"MEAN_MOTION_DDOT":0},{"OBJECT_NAME":"SL-14 R\/B","OBJECT_ID":"1987-003B","EPOCH":"2026-03-09T23:05:47.136768","MEAN_MOTION":14.85629429,"ECCENTRICITY":0.00190097,"INCLINATION":82.5259,"RA_OF_ASC_NODE":280.8039,"ARG_OF_PERICENTER":139.1629,"MEAN_ANOMALY":221.1016,"EPHEMERIS_TYPE":0,"CLASSIFICATION_TYPE":"U","NORAD_CAT_ID":17296,"ELEMENT_SET_NO":999,"REV_AT_EPOCH":9474,"BSTAR":5.8437645e-5,"MEAN_MOTION_DOT":5.32e-6,"MEAN_MOTION_DDOT":0}]
